{
  "links" : {
    "next" : "https://api.nasa.gov/neo/rest/v1/feed?start_date=2012-09-23&end_date=2012-09-23&detailed=true&api_key=t0TVs3DtDT2H8Oy2Zy8m2eVrNsAVKAexjcZXUckd",
    "prev" : "https://api.nasa.gov/neo/rest/v1/feed?start_date=2012-09-21&end_date=2012-09-21&detailed=true&api_key=t0TVs3DtDT2H8Oy2Zy8m2eVrNsAVKAexjcZXUckd",
    "self" : "https://api.nasa.gov/neo/rest/v1/feed?start_date=2012-09-22&end_date=2012-09-22&detailed=true&api_key=t0TVs3DtDT2H8Oy2Zy8m2eVrNsAVKAexjcZXUckd"
  },
  "element_count" : 9,
  "near_earth_objects" : {
    "2012-09-22" : [ {
      "links" : {
        "self" : "https://api.nasa.gov/neo/rest/v1/neo/3609118?api_key=t0TVs3DtDT2H8Oy2Zy8m2eVrNsAVKAexjcZXUckd"
      },
      "neo_reference_id" : "3609118",
      "name" : "(2012 SH32)",
      "nasa_jpl_url" : "http://ssd.jpl.nasa.gov/sbdb.cgi?sstr=3609118",
      "absolute_magnitude_h" : 22.1,
      "estimated_diameter" : {
        "kilometers" : {
          "estimated_diameter_min" : 0.1010543415,
          "estimated_diameter_max" : 0.2259643771
        },
        "meters" : {
          "estimated_diameter_min" : 101.054341542,
          "estimated_diameter_max" : 225.9643771094
        },
        "miles" : {
          "estimated_diameter_min" : 0.0627922373,
          "estimated_diameter_max" : 0.140407711
        },
        "feet" : {
          "estimated_diameter_min" : 331.5431259047,
          "estimated_diameter_max" : 741.3529669956
        }
      },
      "is_potentially_hazardous_asteroid" : false,
      "close_approach_data" : [ {
        "close_approach_date" : "2012-09-22",
        "epoch_date_close_approach" : 1348297200000,
        "relative_velocity" : {
          "kilometers_per_second" : "9.6357698407",
          "kilometers_per_hour" : "34688.7714265654",
          "miles_per_hour" : "21554.2535566901"
        },
        "miss_distance" : {
          "astronomical" : "0.1585536323",
          "lunar" : "61.6773605347",
          "kilometers" : "23719286",
          "miles" : "14738481"
        },
        "orbiting_body" : "Earth"
      } ],
      "orbital_data" : {
        "orbit_id" : "11",
        "orbit_determination_date" : "2017-04-06 08:48:53",
        "orbit_uncertainty" : "6",
        "minimum_orbit_intersection" : ".14244",
        "jupiter_tisserand_invariant" : "3.774",
        "epoch_osculation" : "2458000.5",
        "eccentricity" : ".4041652874112904",
        "semi_major_axis" : "1.921800507346759",
        "inclination" : "16.49141023495291",
        "ascending_node_longitude" : "356.7605801852938",
        "orbital_period" : "973.1076403222977",
        "perihelion_distance" : "1.145075452947793",
        "perihelion_argument" : "6.067469536987835",
        "aphelion_distance" : "2.698525561745726",
        "perihelion_time" : "2458146.760685485851",
        "mean_anomaly" : "305.8910354896946",
        "mean_motion" : ".3699487960866964",
        "equinox" : "J2000"
      }
    }, {
      "links" : {
        "self" : "https://api.nasa.gov/neo/rest/v1/neo/3740104?api_key=t0TVs3DtDT2H8Oy2Zy8m2eVrNsAVKAexjcZXUckd"
      },
      "neo_reference_id" : "3740104",
      "name" : "(2016 AG166)",
      "nasa_jpl_url" : "http://ssd.jpl.nasa.gov/sbdb.cgi?sstr=3740104",
      "absolute_magnitude_h" : 24.0,
      "estimated_diameter" : {
        "kilometers" : {
          "estimated_diameter_min" : 0.0421264611,
          "estimated_diameter_max" : 0.0941976306
        },
        "meters" : {
          "estimated_diameter_min" : 42.1264610556,
          "estimated_diameter_max" : 94.1976305719
        },
        "miles" : {
          "estimated_diameter_min" : 0.0261761612,
          "estimated_diameter_max" : 0.0585316759
        },
        "feet" : {
          "estimated_diameter_min" : 138.2101784897,
          "estimated_diameter_max" : 309.0473542854
        }
      },
      "is_potentially_hazardous_asteroid" : false,
      "close_approach_data" : [ {
        "close_approach_date" : "2012-09-22",
        "epoch_date_close_approach" : 1348297200000,
        "relative_velocity" : {
          "kilometers_per_second" : "14.0818205286",
          "kilometers_per_hour" : "50694.5539028797",
          "miles_per_hour" : "31499.6243403755"
        },
        "miss_distance" : {
          "astronomical" : "0.3785026363",
          "lunar" : "147.2375183105",
          "kilometers" : "56623188",
          "miles" : "35184020"
        },
        "orbiting_body" : "Earth"
      } ],
      "orbital_data" : {
        "orbit_id" : "7",
        "orbit_determination_date" : "2017-04-06 08:29:05",
        "orbit_uncertainty" : "7",
        "minimum_orbit_intersection" : ".014437",
        "jupiter_tisserand_invariant" : "5.902",
        "epoch_osculation" : "2458000.5",
        "eccentricity" : ".3765568311347712",
        "semi_major_axis" : "1.022899468776611",
        "inclination" : "7.319368254499072",
        "ascending_node_longitude" : "102.1356276108586",
        "orbital_period" : "377.8747357392443",
        "perihelion_distance" : ".6377196862446496",
        "perihelion_argument" : "260.5953073408739",
        "aphelion_distance" : "1.408079251308572",
        "perihelion_time" : "2458085.037295938038",
        "mean_anomaly" : "279.4616002095087",
        "mean_motion" : ".9526966636065901",
        "equinox" : "J2000"
      }
    }, {
      "links" : {
        "self" : "https://api.nasa.gov/neo/rest/v1/neo/3754379?api_key=t0TVs3DtDT2H8Oy2Zy8m2eVrNsAVKAexjcZXUckd"
      },
      "neo_reference_id" : "3754379",
      "name" : "(2016 NR)",
      "nasa_jpl_url" : "http://ssd.jpl.nasa.gov/sbdb.cgi?sstr=3754379",
      "absolute_magnitude_h" : 23.9,
      "estimated_diameter" : {
        "kilometers" : {
          "estimated_diameter_min" : 0.04411182,
          "estimated_diameter_max" : 0.0986370281
        },
        "meters" : {
          "estimated_diameter_min" : 44.1118199997,
          "estimated_diameter_max" : 98.6370281305
        },
        "miles" : {
          "estimated_diameter_min" : 0.0274098057,
          "estimated_diameter_max" : 0.0612901888
        },
        "feet" : {
          "estimated_diameter_min" : 144.7238235278,
          "estimated_diameter_max" : 323.6123073718
        }
      },
      "is_potentially_hazardous_asteroid" : false,
      "close_approach_data" : [ {
        "close_approach_date" : "2012-09-22",
        "epoch_date_close_approach" : 1348297200000,
        "relative_velocity" : {
          "kilometers_per_second" : "18.5317904865",
          "kilometers_per_hour" : "66714.445751377",
          "miles_per_hour" : "41453.7621392375"
        },
        "miss_distance" : {
          "astronomical" : "0.3226069971",
          "lunar" : "125.4941253662",
          "kilometers" : "48261324",
          "miles" : "29988196"
        },
        "orbiting_body" : "Earth"
      } ],
      "orbital_data" : {
        "orbit_id" : "10",
        "orbit_determination_date" : "2017-04-06 08:25:13",
        "orbit_uncertainty" : "5",
        "minimum_orbit_intersection" : ".0374399",
        "jupiter_tisserand_invariant" : "6.665",
        "epoch_osculation" : "2458000.5",
        "eccentricity" : ".3353665037476037",
        "semi_major_axis" : ".8828491961467082",
        "inclination" : "6.509020010479984",
        "ascending_node_longitude" : "249.5755155843497",
        "orbital_period" : "302.9899446268817",
        "perihelion_distance" : ".5867711478986043",
        "perihelion_argument" : "247.2206887995225",
        "aphelion_distance" : "1.178927244394812",
        "perihelion_time" : "2458080.280890799805",
        "mean_anomaly" : "265.2076770293528",
        "mean_motion" : "1.188158242159896",
        "equinox" : "J2000"
      }
    } ]
  }
}